#dP2022 11 26 12  0  0.00000000      96 __u+U ITR00 EXT  IAC
## 2237 561600.00000000   900.00000000 59909 0.5000000000000
+  117   C06C07C08C09C10C11C12C13C14C16C19C20C21C22C23C24C25
+        C26C27C28C29C30C32C33C34C35C36C37C38C39C40C41C42C43
+        C44C45C46E01E02E03E05E07E08E09E10E11E12E13E14E15E18
+        E19E21E24E25E26E27E30E31E33E34E36G01G02G03G04G05G06
+        G07G08G09G10G11G12G13G14G15G16G17G18G19G20G21G22G23
+        G24G25G26G27G29G30G31G32J02J03J04R01R02R03R04R05R07
+        R08R09R11R12R13R14R15R17R18R19R20R21R22R24R25  0  0
++        11  8 11 10  9  9  7 13 10  9  9  7 10  8  9  7  8
++        10  9  8 10  8  8  8  9  9  8 10 11 11  9  8  7  9
++         9 10  9  8  7  7  9  8  8  9  9 10  8  7  9  7  8
++         8  8  6  8  8  7  8  7  8  7  9  8  7  7  8  8  8
++         8  7  7  8  7  8  7  8  7  7  8  8  7  7  8  7  7
++         7  7  9  8  7  8  7  6  8  8 10  7  9  8  9  7  8
++         8  9  9 10  7  8  8  8  9  9  8  8  8  9  8  0  0
%c M  cc GPS ccc cccc cccc cccc cccc ccccc ccccc ccccc ccccc
%c cc cc ccc ccc cccc cccc cccc cccc ccccc ccccc ccccc ccccc
%f  0.0000000  0.000000000  0.00000000000  0.000000000000000
%f  0.0000000  0.000000000  0.00000000000  0.000000000000000
%i    0    0    0    0      0      0      0      0         0
%i    0    0    0    0      0      0      0      0         0
/* IAC                                ULTRA-RAPID PREDICTION
/* S/V CLOCKS ARE ALIGNED TO GNSS TIME                      
/* G:C1WC2W R:C1PC2P E:C1XC5X C:C2IC6I J:C1CC2S             
/* PCV:IGS14_2233 OL/AL:FES2004  NONE     YN ORB:CoN CLK:CoN
*  2022 11 26 23 30  0.00000000
PC06 -14059.121627  39306.156818  -6811.960227     -7.731690
PC07  -2204.114174  32245.539411 -26971.025641    158.076921
PC08 -14423.485666  20587.204368  33810.100057    516.808575
PC09  -9673.299759  38605.124767 -14300.134063   -797.150876
PC10   5230.134359  34816.138727 -22564.447699     61.662899
PC11  13240.519260   8306.981288  23188.994685   -269.449781
PC12   2050.523925  23649.904981  14702.587447    319.182716
PC13  -4634.904583  22563.201911  35428.602945    143.436247
PC14  21800.482645  14808.172948  -9092.269628    211.808653
PC16 -17737.141797  38395.090516  -1272.537058    111.079349
PC19 -21319.677322  -6443.004805  16838.953772   -909.563890
PC20 -19484.990172 -19924.762437   1652.062886    825.079521
PC21   5680.322955  22371.682844  15683.414048   -908.728224
PC22 -10950.238823  11370.372225  23004.457606   -771.860899
PC23  22247.873695 -12745.778847  11029.255803   -874.557121
PC24  15453.672457  11601.778431 -20157.792868   -753.222687
PC25  27265.905371  -2284.191579  -5564.459858     30.663023
PC26  -2858.525117  16903.352689 -22027.646817    -41.572534
PC27   3960.517961 -26715.855386  -7017.736596     57.412676
PC28  14561.854617 -21715.454323   9770.341469     40.553312
PC29 -16957.078724   3563.607127 -21876.462357     45.878734
PC30  -9393.669609 -17105.182569 -19942.826104      1.080397
PC32  -5784.111009 -22309.031404 -15728.024403   -703.405733
PC33  21389.211753   6402.857461 -16738.420722   -904.051421
PC34  10092.845125  16088.744464  20445.330748     48.150366
PC35 -14470.257803  21131.562777 -11125.036641    106.462070
PC36 -27186.062721   1186.594009   6174.365498   -811.023399
PC37   4860.269542 -16916.901934  21670.939956   -904.694952
PC38 -21739.084265  21677.981357  28847.226547     40.909795
PC39 -17920.125269  38145.166586   3349.415095     -0.943937
PC40  -6200.295439  27424.314273 -31361.129432     -8.939303
PC41  11380.486729 -10936.881497 -22967.625098   -317.812694
PC42  18930.262257  20489.582526   -391.372372   -739.318460
PC43  16948.932828  -2585.599350  22009.550200     27.076753
PC44  -3123.175779  26908.683071   6759.309941    126.536623
PC45 -21974.260153  12851.241660 -11402.021819    -27.385155
PC46 -17066.343617 -10548.663713  19374.049650    -15.664044
PE01 -27733.037262 -10284.910452    937.079731   -570.962271
PE02  27819.045159  10129.063525   -681.026422      5.028989
PE03  17425.540314  11170.627971 -21167.677638   -623.952372
PE05  10027.044332  27093.629826  -6462.500079   -120.763296
PE07   3098.939737 -26981.296834 -11778.768029     -2.493824
PE08  14479.526066 -10787.629684 -23463.103368   -638.952959
PE09  -3106.340913  26873.498106  11999.332768   -743.276198
PE10 -20814.966477  20854.139052   2766.316820   -493.640578
PE11 -13541.581968  22990.093299  12818.821200   1139.623016
PE12 -24278.254619  15537.323806  -6753.232016   -298.904766
PE13  14262.680053 -22966.242987 -12048.676369    430.527758
PE14  -8252.155667  22699.409367 -11513.901923     67.992272
PE15  24279.310157 -15392.842379   7069.880423    704.822186
PE18  -2837.136347 -30522.359509  -1798.798878   -696.721583
PE19 -16848.462773 -14037.881788  19875.293315  -3893.827950
PE21 -16447.440525 -17861.966959  16924.647478   -496.948436
PE24  -6184.954667  15576.537185 -24408.745061   -969.431951
PE25  16182.959424  17916.701015 -17126.524941   -593.595214
PE26  -4903.093121 -16585.409378 -24014.710407  -1891.416091
PE27   5105.889765 -15897.750498  24445.974502   -449.143155
PE30  23944.397299  -3989.169379  16947.558968  -1030.730575
PE31 -23417.655508   4597.477188 -17495.170765   -509.173495
PE33 -19899.035251  -1202.709955 -21871.970848   -455.614803
PE34  20012.711502   1004.563246  21790.867741    -16.632406
PE36   4013.593215  16996.849633  23905.670376   -466.723484
PG01   9335.861240 -19421.773789 -15601.439464    245.979326
PG02  -5301.564056  20311.179171  17024.995394   -635.968775
PG03    805.814328 -15565.108912 -21645.160367   -374.381150
PG04   1196.774502 -26029.093076  -4850.231781    -79.321373
PG05 -14904.708642   9119.038771  19864.065578   -105.824834
PG06 -21018.744889   2353.896087 -16045.938396    527.552147
PG07  -6211.586311 -14644.115712  21641.549956    282.375940
PG08   7458.989441 -20559.318706  14760.413123    -95.768383
PG09  -7783.026835 -24618.006001   6049.554798   -262.635390
PG10  24024.551525  11603.384795   1868.794963    -13.585443
PG11 -23456.433754  11180.047578  -5397.251951    -46.323974
PG12  -2784.855597  15406.908929 -21738.158134   -308.977688
PG13 -12917.948102  13756.115566  18437.760661    431.714660
PG14 -22677.309711 -13483.618182   3575.739965    -77.337864
PG15  -5068.706099  21644.122794  13877.139010     -9.046465
PG16  19476.741758  -3353.934788  17680.594261   -526.742247
PG17 -12335.659736 -15853.281750 -16893.983867    681.242708
PG18   7607.422713  12915.956552  21921.899894    -36.847713
PG19 -14865.991786  -4187.515366 -21868.778314    242.700710
PG20 -23823.493044   2474.224694  11250.810572    467.433028
PG21  15534.516565 -19818.542752  -6485.327686    155.189043
PG22  15021.079613    635.541639 -21479.481120    372.724939
PG23  17810.667435  15792.696360  11921.730726     -0.700452
PG24 -11222.182980  21168.052956 -11332.283032     41.888053
PG25   9156.462544  17646.130349 -18042.837351    396.489558
PG26  25259.407250   2558.891008   8261.389318    236.932122
PG27  13076.790309  -9749.149316  20653.724740    168.463151
PG29   4146.087879  25792.198356   4510.985985   -569.970365
PG30 -16848.605790  -5829.383735  19848.612870   -536.254287
PG31  22222.486820  -3020.514688 -14736.010382   -201.443334
PG32  14579.228456  12393.812933 -18351.610883   -309.588568
PJ02 -28186.708087  15555.686994 -22615.943478     -0.196638
PJ03 -25182.143868  32881.092727  -3534.605981     -5.419208
PJ04 -26745.576915  25942.319595  25789.615859    113.785977
PR01  -6323.388661  10124.098816  22537.677469     18.556027
PR02   6766.672292  21794.143675  11508.808179    -23.377877
PR03  15211.433272  19685.193483  -5748.947532     68.003386
PR04  14812.055260   6881.480792 -19578.695852    166.398269
PR05   6505.733128  -9706.938425 -22665.188237    103.580273
PR07 -15380.142284 -19210.568319   6638.065845     45.035794
PR08 -14883.316522  -6530.120279  19697.950794    -68.277540
PR09   -184.915826 -11316.614468  22875.021136     89.790937
PR11 -25443.780091    128.643909   1905.294358     18.543510
PR12 -18238.782375   8146.299152 -15826.971751     23.186819
PR13  -1796.573563  11077.194550 -22922.225429    -29.325357
PR14  17815.466648   7436.398090 -16654.925213     24.092840
PR15  25493.094711   -373.861663   -791.900454     92.727161
PR17   5424.722907  11150.947445  22297.886492    581.699734
PR18  13656.105055  -5060.236187  20949.916454     53.961924
PR19  15658.679475 -17567.291298   9859.198489   -212.414383
PR20   7672.576981 -21855.410079 -10629.273609    -82.872145
PR21  -6271.480220  -9747.339565 -22720.050908   -352.860248
PR22 -14429.143903   5172.521250 -20361.390436     19.671890
PR24  -6395.658524  22024.978219  11168.050990    128.996202
PR25  -4789.569551 -11975.830253 -22001.865448     47.369076
EOF
